IRIDIUM 154             
1 43574U 18061F   26198.92975078  .00000028  00000+0  28196-5 0  9992
2 43574  86.3940  43.9471 0002313  90.0135 270.1326 14.34217515417815
IRIDIUM 163             
1 43575U 18061G   26198.49211257  .00000020  00000+0  11264-8 0  9990
2 43575  86.3934  44.0445 0002002  85.3177 274.8247 14.34217181417722
IRIDIUM 156             
1 43576U 18061H   26198.53650927  .00000068  00000+0  17248-4 0  9993
2 43576  86.3936  44.0332 0002122  93.0957 267.0481 14.34218145417720
IRIDIUM 164             
1 43577U 18061J   26198.93609366  .00000067  00000+0  16777-4 0  9994
2 43577  86.3939  43.9070 0002365  89.0553 271.0914 14.34218360417823
IRIDIUM 159             
1 43578U 18061K   26198.55553753  .00000050  00000+0  10640-4 0  9996
2 43578  86.3935  44.0025 0002128  85.9032 274.2407 14.34217736417734
IRIDIUM 180             
1 43922U 19002A   26198.90387661  .00000161  00000+0  50569-4 0  9994
2 43922  86.3995 340.7572 0002171  91.2846 268.8599 14.34218205393395
IRIDIUM 176             
1 43923U 19002B   26198.88050815  .00000387  00000+0  57540-4 0  9996
2 43923  86.6115 340.7060 0002336  91.0383 269.1102 14.72251076403764
IRIDIUM 168             
1 43924U 19002C   26198.89753527  .00000042  00000+0  79222-5 0  9998
2 43924  86.3996 340.8377 0002176  90.2394 269.9051 14.34217054393378
IRIDIUM 173             
1 43925U 19002D   26198.88484912 -.00000071  00000+0 -32351-4 0  9992
2 43925  86.3988 340.7312 0002035  92.3798 267.7631 14.34217599393355
IRIDIUM 169             
1 43926U 19002E   26198.85673063  .00000065  00000+0  14794-4 0  9999
2 43926  86.4225  12.3669 0001984 104.7757 255.3661 14.38613662394636
IRIDIUM 172             
1 43927U 19002F   26198.87850679  .00000064  00000+0  15863-4 0  9999
2 43927  86.3993 340.7414 0002181  91.1875 268.9570 14.34217946393363
IRIDIUM 175             
1 43928U 19002G   26198.77422291  .00000160  00000+0  41313-4 0  9990
2 43928  86.4510 277.7362 0005423 110.4413 249.7371 14.43627988403398
IRIDIUM 171             
1 43929U 19002H   26198.92924720  .00000058  00000+0  13640-4 0  9990
2 43929  86.4003 341.0296 0002256  94.7437 265.4017 14.34217910393365
IRIDIUM 170             
1 43930U 19002J   26198.88667689  .00000381  00000+0  56537-4 0  9996
2 43930  86.6114 340.7055 0002228  87.9110 272.2363 14.72251641403770
IRIDIUM 167             
1 43931U 19002K   26198.92290452  .00000045  00000+0  91589-5 0  9996
2 43931  86.3995 340.7455 0002341  98.3553 261.7909 14.34217847393362
IRIDIUM 181             
1 56726U 23068S   26198.81937475  .00000115  00000+0  28064-4 0  9995
2 56726  86.4476  43.9800 0002396  84.5838 275.5636 14.43307880166851
IRIDIUM 177             
1 56727U 23068T   26198.81384835  .00000537  00000+0  67440-4 0  9991
2 56727  86.1987 314.2513 0002196  96.7148 263.4323 14.80026424170899
IRIDIUM 174             
1 56728U 23068U   26198.67031630  .00000359  00000+0  53078-4 0  9992
2 56728  86.6122 340.9463 0001988  89.6924 270.4521 14.72259865170501
IRIDIUM 178             
1 56729U 23068V   26198.93807045  .00000175  00000+0  19710-4 0  9994
2 56729  86.6536  12.5072 0002272  91.1481 269.0001 14.80028641170919
IRIDIUM 179             
1 56730U 23068W   26198.93272510  .00000101  00000+0  98366-5 0  9993
2 56730  86.6768  21.5796 0002364  93.6401 266.5091 14.80023385170913
